#dV2023  1  7 22  0  0.00000000    1682       CTS   FIT  GFZ
## 2243 597600.00000000    30.00000000 59951 0.9166666666667
+    1   L65  0  0  0  0  0  0  0  0  0  0  0  0  0  0  0  0
+          0  0  0  0  0  0  0  0  0  0  0  0  0  0  0  0  0
+          0  0  0  0  0  0  0  0  0  0  0  0  0  0  0  0  0
+          0  0  0  0  0  0  0  0  0  0  0  0  0  0  0  0  0
+          0  0  0  0  0  0  0  0  0  0  0  0  0  0  0  0  0
++         0  0  0  0  0  0  0  0  0  0  0  0  0  0  0  0  0
++         0  0  0  0  0  0  0  0  0  0  0  0  0  0  0  0  0
++         0  0  0  0  0  0  0  0  0  0  0  0  0  0  0  0  0
++         0  0  0  0  0  0  0  0  0  0  0  0  0  0  0  0  0
++         0  0  0  0  0  0  0  0  0  0  0  0  0  0  0  0  0
%c L  cc GPS ccc cccc cccc cccc cccc ccccc ccccc ccccc ccccc
%c cc cc ccc ccc cccc cccc cccc cccc ccccc ccccc ccccc ccccc
%f  0.0000000  0.000000000  0.00000000000  0.000000000000000
%f  0.0000000  0.000000000  0.00000000000  0.000000000000000
%i    0    0    0    0      0      0      0      0         0
%i    0    0    0    0      0      0      0      0         0
/* CCCCCCCCCCCCCCCCCCCCCCCCCCCCCCCCCCCCCCCCCCCCCCCCCCCCCCCCCCCCCCCCCCCCCCCCCCCCC
/* C                             GFZ RSO-ORBIT                                 C
/* C DOI: https://doi.org/10.5880/GFZ_ORBIT/RSO/L65_G_v02                      C
/* C                                                                           C
/* C DORIS        RMS: not applicable                                          C
/* C GNSS-E Code  RMS: not applicable                                          C
/* C GNSS-E Phase RMS: not applicable                                          C
/* C GNSS-G Code  RMS:  47.434 [cm]   Obs.acc.:     14279 Obs.eli.:      1191  C
/* C GNSS-G Phase RMS:   3.851 [mm]   Obs.acc.:     14279 Obs.eli.:      1191  C
/* C SLR          RMS:   9.975 [cm]   Obs.acc.:        96 Obs.eli.:         0  C
/* C                                                                           C
/* CCCCCCCCCCCCCCCCCCCCCCCCCCCCCCCCCCCCCCCCCCCCCCCCCCCCCCCCCCCCCCCCCCCCCCCCCCCCC
*  2023  1  8  0  7 30.00000000
PL65    659.280167   5096.024897  -4566.529943  23892.853792
VL65  -4560.957734 -50416.875328 -56836.278101 999999.999999
*  2023  1  8  0  8  0.00000000
PL65    644.903215   4942.036456  -4734.483594  23893.320930
VL65  -5024.117935 -52232.310294 -55122.551847 999999.999999
*  2023  1  8  0  8 30.00000000
PL65    629.133197   4782.690669  -4897.204594  23893.787838
VL65  -5489.540285 -53988.113821 -53348.167981 999999.999999
*  2023  1  8  0  9  0.00000000
PL65    611.964485   4618.169322  -5054.513919  23894.254362
VL65  -5956.450575 -55682.370418 -51515.103824 999999.999999
*  2023  1  8  0  9 30.00000000
PL65    593.393789   4448.659838  -5206.238574  23894.721047
VL65  -6424.065207 -57313.237255 -49625.399013 999999.999999
*  2023  1  8  0 10  0.00000000
PL65    573.420181   4274.355059  -5352.211771  23895.187577
VL65  -6891.592420 -58878.945918 -47681.153446 999999.999999
*  2023  1  8  0 10 30.00000000
PL65    552.045120   4095.453016  -5492.273110  23895.653982
VL65  -7358.233575 -60377.804475 -45684.525207 999999.999999
*  2023  1  8  0 11  0.00000000
PL65    529.272470   3912.156698  -5626.268751  23896.120570
VL65  -7823.184350 -61808.200148 -43637.727859 999999.999999
*  2023  1  8  0 11 30.00000000
PL65    505.108514   3724.673812  -5754.051572  23896.587271
VL65  -8285.635675 -63168.601157 -41543.026319 999999.999999
*  2023  1  8  0 12  0.00000000
PL65    479.561968   3533.216540  -5875.481317  23897.054036
VL65  -8744.774747 -64457.556213 -39402.733723 999999.999999
*  2023  1  8  0 12 30.00000000
PL65    452.643993   3338.001294  -5990.424742  23897.520855
VL65  -9199.786422 -65673.694857 -37219.210922 999999.999999
*  2023  1  8  0 13  0.00000000
PL65    424.368193   3139.248476  -6098.755757  23897.987145
VL65  -9649.854556 -66815.730652 -34994.864590 999999.999999
*  2023  1  8  0 13 30.00000000
PL65    394.750625   2937.182216  -6200.355553  23898.453082
VL65 -10094.163107 -67882.463245 -32732.142228 999999.999999
*  2023  1  8  0 14  0.00000000
PL65    363.809789   2732.030118  -6295.112718  23898.919383
VL65 -10531.897078 -68872.777459 -30433.528131 999999.999999
*  2023  1  8  0 14 30.00000000
PL65    331.566630   2524.023004  -6382.923348  23899.386123
VL65 -10962.243442 -69785.642296 -28101.542240 999999.999999
*  2023  1  8  0 15  0.00000000
PL65    298.044526   2313.394662  -6463.691153  23899.852836
VL65 -11384.392319 -70620.111858 -25738.739886 999999.999999
*  2023  1  8  0 15 30.00000000
PL65    263.269279   2100.381589  -6537.327560  23900.319469
VL65 -11797.538521 -71375.328150 -23347.710537 999999.999999
*  2023  1  8  0 16  0.00000000
PL65    227.269097   1885.222717  -6603.751808  23900.786129
VL65 -12200.883359 -72050.524051 -20931.073654 999999.999999
*  2023  1  8  0 16 30.00000000
PL65    190.074572   1668.159144  -6662.891037  23901.253018
VL65 -12593.635690 -72645.023501 -18491.473147 999999.999999
*  2023  1  8  0 17  0.00000000
PL65    151.718658   1449.433862  -6714.680348  23901.719855
VL65 -12975.012545 -73158.239635 -16031.573868 999999.999999
*  2023  1  8  0 17 30.00000000
PL65    112.236646   1229.291492  -6759.062866  23902.186717
VL65 -13344.240559 -73589.673025 -13554.060848 999999.999999
*  2023  1  8  0 18  0.00000000
PL65     71.666126   1007.978021  -6795.989805  23902.653651
VL65 -13700.558116 -73938.912912 -11061.640124 999999.999999
*  2023  1  8  0 18 30.00000000
PL65     30.046956    785.740529  -6825.420523  23903.120457
VL65 -14043.216994 -74205.641666  -8557.035736 999999.999999
*  2023  1  8  0 19  0.00000000
PL65    -12.578783    562.826908  -6847.322570  23903.587233
VL65 -14371.482962 -74389.635949  -6042.982574 999999.999999
*  2023  1  8  0 19 30.00000000
PL65    -56.166828    339.485582  -6861.671710  23904.054168
VL65 -14684.636145 -74490.764102  -3522.221598 999999.999999
*  2023  1  8  0 20  0.00000000
PL65   -100.670781    115.965235  -6868.451937  23904.520969
VL65 -14981.971481 -74508.983982   -997.497678 999999.999999
*  2023  1  8  0 20 30.00000000
PL65   -146.042148   -107.485456  -6867.655481  23904.987746
VL65 -15262.798567 -74444.341402   1528.441055 999999.999999
*  2023  1  8  0 21  0.00000000
PL65   -192.230389   -330.618083  -6859.282828  23905.454576
VL65 -15526.443068 -74296.970756   4052.842301 999999.999999
*  2023  1  8  0 21 30.00000000
PL65   -239.182969   -553.184776  -6843.342719  23905.921386
VL65 -15772.250415 -74067.097946   6572.951985 999999.999999
*  2023  1  8  0 22  0.00000000
PL65   -286.845421   -774.938483  -6819.852157  23906.388145
VL65 -15999.587715 -73755.040575   9086.020308 999999.999999
*  2023  1  8  0 22 30.00000000
PL65   -335.161413   -995.633238  -6788.836381  23906.854656
VL65 -16207.843468 -73361.205194  11589.305460 999999.999999
*  2023  1  8  0 23  0.00000000
PL65   -384.072810  -1215.024427  -6750.328841  23907.321156
VL65 -16396.427978 -72886.086049  14080.074506 999999.999999
*  2023  1  8  0 23 30.00000000
PL65   -433.519742  -1432.869050  -6704.371173  23907.787754
VL65 -16564.774450 -72330.265756  16555.605024 999999.999999
*  2023  1  8  0 24  0.00000000
PL65   -483.440675  -1648.925989  -6651.013159  23908.254416
VL65 -16712.340041 -71694.415747  19013.187980 999999.999999
*  2023  1  8  0 24 30.00000000
PL65   -533.772483  -1862.956272  -6590.312686  23908.721139
VL65 -16838.607396 -70979.296020  21450.130649 999999.999999
*  2023  1  8  0 25  0.00000000
PL65   -584.450530  -2074.723341  -6522.335690  23909.187947
VL65 -16943.086365 -70185.754722  23863.759629 999999.999999
*  2023  1  8  0 25 30.00000000
PL65   -635.408750  -2283.993312  -6447.156093  23909.654762
VL65 -17025.314838 -69314.727933  26251.424750 999999.999999
*  2023  1  8  0 26  0.00000000
PL65   -686.579733  -2490.535242  -6364.855728  23910.121428
VL65 -17084.858506 -68367.237512  28610.503535 999999.999999
*  2023  1  8  0 26 30.00000000
PL65   -737.894809  -2694.121375  -6275.524252  23910.588173
VL65 -17121.310984 -67344.387984  30938.402625 999999.999999
*  2023  1  8  0 27  0.00000000
PL65   -789.284130  -2894.527395  -6179.259057  23911.054954
VL65 -17134.295387 -66247.366429  33232.558126 999999.999999
*  2023  1  8  0 27 30.00000000
PL65   -840.676766  -3091.532669  -6076.165180  23911.521630
VL65 -17123.465914 -65077.442870  35490.438862 999999.999999
*  2023  1  8  0 28  0.00000000
PL65   -892.000797  -3284.920499  -5966.355195  23911.988263
VL65 -17088.508545 -63835.968770  37709.550025 999999.999999
*  2023  1  8  0 28 30.00000000
PL65   -943.183407  -3474.478360  -5849.949106  23912.455013
VL65 -17029.141634 -62524.375207  39887.435643 999999.999999
*  2023  1  8  0 29  0.00000000
PL65   -994.150987  -3659.998138  -5727.074223  23912.921795
VL65 -16945.116668 -61144.171743  42021.680581 999999.999999
*  2023  1  8  0 29 30.00000000
PL65  -1044.829233  -3841.276365  -5597.865037  23913.388811
VL65 -16836.218998 -59696.945896  44109.913186 999999.999999
*  2023  1  8  0 30  0.00000000
PL65  -1095.143247  -4018.114453  -5462.463083  23913.856172
VL65 -16702.268534 -58184.362047  46149.808878 999999.999999
*  2023  1  8  0 30 30.00000000
PL65  -1145.017645  -4190.318916  -5321.016796  23914.322782
VL65 -16543.120447 -56608.159196  48139.093553 999999.999999
*  2023  1  8  0 31  0.00000000
PL65  -1194.376662  -4357.701598  -5173.681355  23914.789280
VL65 -16358.665736 -54970.148529  50075.546102 999999.999999
*  2023  1  8  0 31 30.00000000
PL65  -1243.144259  -4520.079879  -5020.618520  23915.255070
VL65 -16148.831717 -53272.211442  51957.000583 999999.999999
*  2023  1  8  0 32  0.00000000
PL65  -1291.244236  -4677.276888  -4861.996460  23915.720878
VL65 -15913.582589 -51516.297878  53781.348563 999999.999999
*  2023  1  8  0 32 30.00000000
PL65  -1338.600340  -4829.121704  -4697.989585  23916.186807
VL65 -15652.919998 -49704.424587  55546.541859 999999.999999
EOF
